{
"type": "FeatureCollection",
"features": [
{ "type": "Feature", "properties": { "Parent Corporation": "Amick", "Establishment Name": "AMICK FARMS, LLC", "Address": "274 NEALSON STREET ", "City": "HURLOCK", "State": "MD", "Zip": "21643", "Sales": 16286400.0 }, "geometry": { "type": "Point", "coordinates": [ -75.857209030472006, 38.634687992107999 ] } },
{ "type": "Feature", "properties": { "Parent Corporation": "Other", "Establishment Name": "Agri Star Meat and Poultry, LLC", "Address": "220 West Street ", "City": "Postville", "State": "IA", "Zip": "52162", "Sales": 11696116.0 }, "geometry": { "type": "Point", "coordinates": [ -91.581162005468002, 43.087655987166002 ] } },
{ "type": "Feature", "properties": { "Parent Corporation": "Harim Group", "Establishment Name": "Allen Harim LLC", "Address": "18752 Harbeson Road ", "City": "Harbeson", "State": "DE", "Zip": "19951", "Sales": 96157.0 }, "geometry": { "type": "Point", "coordinates": [ -75.288277964708001, 38.720021005124003 ] } },
{ "type": "Feature", "properties": { "Parent Corporation": "Amick", "Establishment Name": "Amick Farms LLC", "Address": "525 N Mississippi Ave ", "City": "Laurel", "State": "MS", "Zip": "39440", "Sales": 14804755.0 }, "geometry": { "type": "Point", "coordinates": [ -89.119736626217005, 31.693342335749001 ] } },
{ "type": "Feature", "properties": { "Parent Corporation": "Amick", "Establishment Name": "Amick Farms, LLC", "Address": "2079 Batesburg Hwy. ", "City": "Batesburg", "State": "SC", "Zip": "29006", "Sales": 27853482.0 }, "geometry": { "type": "Point", "coordinates": [ -81.637884025293005, 33.956617994214 ] } },
{ "type": "Feature", "properties": { "Parent Corporation": "Bachoco OK Foods", "Establishment Name": "Bachoco OK Foods", "Address": "200 Industrial Road ", "City": "Heavener", "State": "OK", "Zip": "74937", "Sales": 62337606.0 }, "geometry": { "type": "Point", "coordinates": [ -94.600949871406002, 34.909342652436003 ] } },
{ "type": "Feature", "properties": { "Parent Corporation": "Bachoco OK Foods", "Establishment Name": "Bachoco OK Foods", "Address": "3921 Reed Lane ", "City": "Fort Smith", "State": "AR", "Zip": "72904", "Sales": 62337606.0 }, "geometry": { "type": "Point", "coordinates": [ -94.385296364493996, 35.423560182296001 ] } },
{ "type": "Feature", "properties": { "Parent Corporation": "Butterball", "Establishment Name": "Butterball, LLC", "Address": "1294 N. College St. ", "City": "Huntsville", "State": "AR", "Zip": "72740", "Sales": 1815000.0 }, "geometry": { "type": "Point", "coordinates": [ -93.737846982543005, 36.101926004562003 ] } },
{ "type": "Feature", "properties": { "Parent Corporation": "Butterball", "Establishment Name": "Butterball, LLC", "Address": "1628 Garner Chapel Road ", "City": "Mount Olive", "State": "NC", "Zip": "28365", "Sales": 10890000.0 }, "geometry": { "type": "Point", "coordinates": [ -77.913941121918995, 35.140487937026002 ] } },
{ "type": "Feature", "properties": { "Parent Corporation": "Butterball", "Establishment Name": "Butterball, LLC", "Address": "307 Dodgen Place ", "City": "Ozark", "State": "AR", "Zip": "72949", "Sales": 238612000.0 }, "geometry": { "type": "Point", "coordinates": [ -93.818067076530994, 35.485075682161998 ] } },
{ "type": "Feature", "properties": { "Parent Corporation": "Cargill", "Establishment Name": "Cargill Meat Solutions", "Address": "135 Huffman Drive ", "City": "Dayton", "State": "VA", "Zip": "22821", "Sales": 220000.0 }, "geometry": { "type": "Point", "coordinates": [ -78.938053625582995, 38.413429927353 ] } },
{ "type": "Feature", "properties": { "Parent Corporation": "Cargill", "Establishment Name": "Cargill Meat Solutions", "Address": "730 E. Randall Wobbe Lane ", "City": "Springdale", "State": "AR", "Zip": "72764", "Sales": 333100.0 }, "geometry": { "type": "Point", "coordinates": [ -94.122285821532003, 36.203801080679 ] } },
{ "type": "Feature", "properties": { "Parent Corporation": "Case Farms", "Establishment Name": "Case Farms Processing", "Address": "1818 County Road 160 ", "City": "Winesburg", "State": "OH", "Zip": "44690", "Sales": 333100.0 }, "geometry": { "type": "Point", "coordinates": [ -81.684470978419, 40.613898993756003 ] } },
{ "type": "Feature", "properties": { "Parent Corporation": "Case Farms", "Establishment Name": "Case Farms Processing", "Address": "330 Pecan RD ", "City": "Dudley", "State": "NC", "Zip": "28333", "Sales": 76623518.0 }, "geometry": { "type": "Point", "coordinates": [ -78.000518920831993, 35.324502850568003 ] } },
{ "type": "Feature", "properties": { "Parent Corporation": "Case Farms", "Establishment Name": "Case Farms Processing, Inc.", "Address": "121 Rand Street ", "City": "Morganton", "State": "NC", "Zip": "28655", "Sales": 47095400.0 }, "geometry": { "type": "Point", "coordinates": [ -81.684075687865004, 35.736192849341997 ] } },
{ "type": "Feature", "properties": { "Parent Corporation": "Other", "Establishment Name": "Cooper Farms Processing", "Address": "1 Cooper Farms Drive ", "City": "St. Henry", "State": "OH", "Zip": "45883", "Sales": 7425000.0 }, "geometry": { "type": "Point", "coordinates": [ -84.622013971499001, 40.426474986796002 ] } },
{ "type": "Feature", "properties": { "Parent Corporation": "Other", "Establishment Name": "Dakota Provisions LLC", "Address": "20827 403rd Ave. ", "City": "Huron", "State": "SD", "Zip": "57350", "Sales": 328562.0 }, "geometry": { "type": "Point", "coordinates": [ -98.159012989215, 44.367155015640002 ] } },
{ "type": "Feature", "properties": { "Parent Corporation": "Other", "Establishment Name": "Empire Kosher Poultry, Inc.", "Address": "247 Empire Drive ", "City": "Mifflintown", "State": "PA", "Zip": "17059", "Sales": 43700104.0 }, "geometry": { "type": "Point", "coordinates": [ -77.397516005392006, 40.560395000763002 ] } },
{ "type": "Feature", "properties": { "Parent Corporation": "Farbest Foods, Inc.", "Establishment Name": "Farbest Foods, Inc.", "Address": "3672 S. Keller Rd. ", "City": "Vincennes", "State": "IN", "Zip": "47591", "Sales": 165659855.0 }, "geometry": { "type": "Point", "coordinates": [ -87.524069998192005, 38.627465012774998 ] } },
{ "type": "Feature", "properties": { "Parent Corporation": "Farbest Foods, Inc.", "Establishment Name": "Farbest Foods, Inc.", "Address": "4689 S. 400 West ", "City": "Huntingburg", "State": "IN", "Zip": "47542-0240", "Sales": 3409100.0 }, "geometry": { "type": "Point", "coordinates": [ -86.981262, 38.3109565 ] } },
{ "type": "Feature", "properties": { "Parent Corporation": "Other", "Establishment Name": "Farmers Pride Inc. dba: Bell & Evans", "Address": "520 Chestnut Hill Road ", "City": "Fredericksburg", "State": "PA", "Zip": "17026", "Sales": 12000000.0 }, "geometry": { "type": "Point", "coordinates": [ -76.411102130379007, 40.443177884078999 ] } },
{ "type": "Feature", "properties": { "Parent Corporation": "Fieldale Farms Corporation", "Establishment Name": "Fieldale Farms Corporation", "Address": "2115 Industrial Blvd. ", "City": "Cornelia", "State": "GA", "Zip": "30531", "Sales": 707852626.0 }, "geometry": { "type": "Point", "coordinates": [ -83.536994909406999, 34.506761286261998 ] } },
{ "type": "Feature", "properties": { "Parent Corporation": "Fieldale Farms Corporation", "Establishment Name": "Fieldale Farms Corporation", "Address": "5163 Thompson Bridge Road ", "City": "Murrayville", "State": "GA", "Zip": "30564", "Sales": 402854097.0 }, "geometry": { "type": "Point", "coordinates": [ -83.900562023698001, 34.411080006700999 ] } },
{ "type": "Feature", "properties": { "Parent Corporation": "Foster Poultry Farms", "Establishment Name": "Foster Poultry Farms, LLC", "Address": "1700 South 13th Avenue ", "City": "Kelso", "State": "WA", "Zip": "98626", "Sales": 372394203.0 }, "geometry": { "type": "Point", "coordinates": [ -122.899240992450999, 46.126236997604003 ] } },
{ "type": "Feature", "properties": { "Parent Corporation": "Foster Poultry Farms", "Establishment Name": "Foster Poultry Farms, LLC", "Address": "2960 Cherry St.. ", "City": "Fresno", "State": "CA", "Zip": "93706", "Sales": 7306623.0 }, "geometry": { "type": "Point", "coordinates": [ -119.783412990990996, 36.693260011585998 ] } },
{ "type": "Feature", "properties": { "Parent Corporation": "Foster Poultry Farms", "Establishment Name": "Foster Poultry Farms, LLC", "Address": "500 F Street ", "City": "Turlock", "State": "CA", "Zip": "95380", "Sales": 24355409.0 }, "geometry": { "type": "Point", "coordinates": [ -120.844186004644001, 37.484650014659998 ] } },
{ "type": "Feature", "properties": { "Parent Corporation": "Foster Poultry Farms", "Establishment Name": "Foster Poultry Farms, LLC", "Address": "6648 HWY 15 North ", "City": "Farmerville", "State": "LA", "Zip": "71241", "Sales": 310400.0 }, "geometry": { "type": "Point", "coordinates": [ -92.433825573275996, 32.837719375200997 ] } },
{ "type": "Feature", "properties": { "Parent Corporation": "Foster Poultry Farms", "Establishment Name": "Foster Poultry Farms, LLC", "Address": "843 Davis St. ", "City": "Livingston", "State": "CA", "Zip": "95334", "Sales": 58452981.0 }, "geometry": { "type": "Point", "coordinates": [ -120.730598979038007, 37.396155012489999 ] } },
{ "type": "Feature", "properties": { "Parent Corporation": "Foster Poultry Farms", "Establishment Name": "Foster Poultry Farms, LLC", "Address": "900 W. Belgravia ", "City": "Fresno", "State": "CA", "Zip": "93706", "Sales": 6273700.0 }, "geometry": { "type": "Point", "coordinates": [ -119.824111992411005, 36.716068008317002 ] } },
{ "type": "Feature", "properties": { "Parent Corporation": "George's", "Establishment Name": "GEORGE'S FOODS, LLC", "Address": "501 NORTH LIBERTY STREET ", "City": "HARRISONBURG", "State": "VA", "Zip": "22802", "Sales": 3825000.0 }, "geometry": { "type": "Point", "coordinates": [ -78.868922981837997, 38.455738005440999 ] } },
{ "type": "Feature", "properties": { "Parent Corporation": "George's", "Establishment Name": "George's Chicken, LLC", "Address": "19992 Senedo Rd. ", "City": "Edinburg", "State": "VA", "Zip": "22824", "Sales": 917139.0 }, "geometry": { "type": "Point", "coordinates": [ -78.610158962482004, 38.877032994700997 ] } },
{ "type": "Feature", "properties": { "Parent Corporation": "George's", "Establishment Name": "George's Processing, Inc.", "Address": "1306 North Kansas St ", "City": "Springdale", "State": "AR", "Zip": "72764", "Sales": 169201800.0 }, "geometry": { "type": "Point", "coordinates": [ -94.139651532350001, 36.198192162532003 ] } },
{ "type": "Feature", "properties": { "Parent Corporation": "George's", "Establishment Name": "George's Processing, Inc.", "Address": "9066 State Highway W ", "City": "Cassville", "State": "MO", "Zip": "65625", "Sales": 1142000.0 }, "geometry": { "type": "Point", "coordinates": [ -93.919505958407996, 36.744025008168002 ] } },
{ "type": "Feature", "properties": { "Parent Corporation": "Other", "Establishment Name": "Gerber Poultry, Inc.", "Address": "5889 Kidron Rd. ", "City": "Kidron", "State": "OH", "Zip": "44636", "Sales": 583350.0 }, "geometry": { "type": "Point", "coordinates": [ -81.74592801451, 40.727737015452 ] } },
{ "type": "Feature", "properties": { "Parent Corporation": "Harrison Poultry, Inc.", "Establishment Name": "Harrison Poultry, Inc.", "Address": "107 E. Star Street ", "City": "Bethlehem", "State": "GA", "Zip": "30620", "Sales": 18632397.5 }, "geometry": { "type": "Point", "coordinates": [ -83.705299778796999, 33.930373275671002 ] } },
{ "type": "Feature", "properties": { "Parent Corporation": "House of Raeford", "Establishment Name": "House Of Raeford Farms", "Address": "3333 Highway 117 South ", "City": "Rose Hill", "State": "NC", "Zip": "28458", "Sales": 70361600.0 }, "geometry": { "type": "Point", "coordinates": [ -78.032863092623998, 34.858515427847998 ] } },
{ "type": "Feature", "properties": { "Parent Corporation": "House of Raeford", "Establishment Name": "House of Raeford", "Address": "410 Sunset Boulevard ", "City": "West Columbia", "State": "SC", "Zip": "29169", "Sales": 73919000.0 }, "geometry": { "type": "Point", "coordinates": [ -81.057774015264002, 33.996561995706003 ] } },
{ "type": "Feature", "properties": { "Parent Corporation": "House of Raeford", "Establishment Name": "House of Raeford - Wallace Div", "Address": "253 Butterball Road ", "City": "Teachey", "State": "NC", "Zip": "28464", "Sales": 2123000.0 }, "geometry": { "type": "Point", "coordinates": [ -78.051463373960999, 34.756251682879999 ] } },
{ "type": "Feature", "properties": { "Parent Corporation": "House of Raeford", "Establishment Name": "House of Raeford Farms Inc.", "Address": "1354 Rutherford Rd. ", "City": "Greenville", "State": "SC", "Zip": "29609", "Sales": 2316000.0 }, "geometry": { "type": "Point", "coordinates": [ -82.368142000570998, 34.893492020151001 ] } },
{ "type": "Feature", "properties": { "Parent Corporation": "House of Raeford", "Establishment Name": "House of Raeford Farms of LA", "Address": "3867 2nd St., Hwy 80 West ", "City": "Arcadia", "State": "LA", "Zip": "71001", "Sales": 175900.0 }, "geometry": { "type": "Point", "coordinates": [ -92.942327006227003, 32.559166016318002 ] } },
{ "type": "Feature", "properties": { "Parent Corporation": "Cagles, Inc.", "Establishment Name": "JCG  Foods of Alabama, LLC", "Address": "764 George Cagle Drive ", "City": "Collinsville", "State": "AL", "Zip": "35961", "Sales": 162300000.0 }, "geometry": { "type": "Point", "coordinates": [ -85.906196903383005, 34.298616659433002 ] } },
{ "type": "Feature", "properties": { "Parent Corporation": "Cagles, Inc.", "Establishment Name": "JCG Foods of Georgia, LLC", "Address": "14075 GA Hwy 116 East ", "City": "Pine Mt Valley", "State": "GA", "Zip": "31823", "Sales": 178530000.0 }, "geometry": { "type": "Point", "coordinates": [ -84.810741993044999, 32.799013002216 ] } },
{ "type": "Feature", "properties": { "Parent Corporation": "Jennie-O", "Establishment Name": "Jennie-O Turkey Store", "Address": "1116 NW 4th Avenue ", "City": "Faribault", "State": "MN", "Zip": "55021", "Sales": 53165.0 }, "geometry": { "type": "Point", "coordinates": [ -93.275947958825, 44.303287008917998 ] } },
{ "type": "Feature", "properties": { "Parent Corporation": "Jennie-O", "Establishment Name": "Jennie-O Turkey Store", "Address": "1129 Main Street East ", "City": "Melrose", "State": "MN", "Zip": "56352", "Sales": 2277200.0 }, "geometry": { "type": "Point", "coordinates": [ -94.793987988864004, 45.676256998291002 ] } },
{ "type": "Feature", "properties": { "Parent Corporation": "Jennie-O", "Establishment Name": "Jennie-O Turkey Store Sales, LLC", "Address": "2505 Willmar Ave SW ", "City": "Willmar", "State": "MN", "Zip": "56201", "Sales": 162819800.0 }, "geometry": { "type": "Point", "coordinates": [ -95.080099978986993, 45.109679990033001 ] } },
{ "type": "Feature", "properties": { "Parent Corporation": "Keystone", "Establishment Name": "Keystone Foods, LLC", "Address": "2294 KY Highway 90 West ", "City": "Albany", "State": "KY", "Zip": "42602", "Sales": 60095000.0 }, "geometry": { "type": "Point", "coordinates": [ -85.181539033158003, 36.759765006956002 ] } },
{ "type": "Feature", "properties": { "Parent Corporation": "Keystone", "Establishment Name": "Keystone Foods, LLC", "Address": "7220 US Highway 19 North ", "City": "Camilla", "State": "GA", "Zip": "31730", "Sales": 197000000.0 }, "geometry": { "type": "Point", "coordinates": [ -84.186932560551, 31.283699875149999 ] } },
{ "type": "Feature", "properties": { "Parent Corporation": "Keystone", "Establishment Name": "Keystone Foods, LLC.", "Address": "57 Melvin Clark Road ", "City": "Baker Hill", "State": "AL", "Zip": "36027", "Sales": 11666800.0 }, "geometry": { "type": "Point", "coordinates": [ -85.321152296266007, 31.803760323094998 ] } },
{ "type": "Feature", "properties": { "Parent Corporation": "Koch Foods", "Establishment Name": "Koch Foods of  Montgomery, AL", "Address": "3500 West Blvd. ", "City": "Montgomery", "State": "AL", "Zip": "36108", "Sales": 133074.0 }, "geometry": { "type": "Point", "coordinates": [ -86.354846975930997, 32.329432006147002 ] } },
{ "type": "Feature", "properties": { "Parent Corporation": "Koch Foods", "Establishment Name": "Koch Foods of Gadsden, LLC", "Address": "501 Paden Road ", "City": "Gadsden", "State": "AL", "Zip": "35903", "Sales": 82693151.0 }, "geometry": { "type": "Point", "coordinates": [ -85.970743999803005, 33.968708009445002 ] } },
{ "type": "Feature", "properties": { "Parent Corporation": "Koch Foods", "Establishment Name": "Koch Foods of Mississippi", "Address": "162 Magnolia Street ", "City": "Morton", "State": "MS", "Zip": "39117", "Sales": 800000.0 }, "geometry": { "type": "Point", "coordinates": [ -89.655216489595006, 32.354945706857997 ] } },
{ "type": "Feature", "properties": { "Parent Corporation": "Other", "Establishment Name": "Kraft Heinz Foods Company", "Address": "3704 Louis Rich Road Suite # 901", "City": "Newberry", "State": "SC", "Zip": "29108", "Sales": 2048483.0 }, "geometry": { "type": "Point", "coordinates": [ -81.629761039106995, 34.304282993219999 ] } },
{ "type": "Feature", "properties": { "Parent Corporation": "Other", "Establishment Name": "Lincoln Premium Poultry", "Address": "1325 E. Cloverly Road ", "City": "Fremont", "State": "NE", "Zip": "68025", "Sales": 120000.0 }, "geometry": { "type": "Point", "coordinates": [ -96.485803466011006, 41.418502684609003 ] } },
{ "type": "Feature", "properties": { "Parent Corporation": "Mar-Jac", "Establishment Name": "Mar-Jac Poultry, Inc.", "Address": "1020 Aviation Blvd ", "City": "Gainesville", "State": "GA", "Zip": "30501", "Sales": 297648000.0 }, "geometry": { "type": "Point", "coordinates": [ -83.828090999194998, 34.279357979204001 ] } },
{ "type": "Feature", "properties": { "Parent Corporation": "Mar-Jac", "Establishment Name": "Mar-Jac Poultry-AL", "Address": "3301 3rd Avenue P. O. Box 931", "City": "Jasper", "State": "AL", "Zip": "35501", "Sales": 242881000.0 }, "geometry": { "type": "Point", "coordinates": [ -87.278473972602001, 33.817980353237999 ] } },
{ "type": "Feature", "properties": { "Parent Corporation": "Mar-Jac", "Establishment Name": "Mar-Jac Poultry-MS", "Address": "1301 James Street P. O. Box 991", "City": "Hattiesburg", "State": "MS", "Zip": "39401", "Sales": 186117800.0 }, "geometry": { "type": "Point", "coordinates": [ -89.276813962160006, 31.305963993681001 ] } },
{ "type": "Feature", "properties": { "Parent Corporation": "Mountaire", "Establishment Name": "Mountaire Farms Inc.", "Address": "1101 East Third Street ", "City": "Siler City", "State": "NC", "Zip": "27344", "Sales": 122600.0 }, "geometry": { "type": "Point", "coordinates": [ -79.449714692053007, 35.731940542223001 ] } },
{ "type": "Feature", "properties": { "Parent Corporation": "Mountaire", "Establishment Name": "Mountaire Farms Inc.", "Address": "55 Hosier St. PO Box 710", "City": "Selbyville", "State": "DE", "Zip": "19975", "Sales": 3292900.0 }, "geometry": { "type": "Point", "coordinates": [ -75.227621987101998, 38.460162015846002 ] } },
{ "type": "Feature", "properties": { "Parent Corporation": "Mountaire", "Establishment Name": "Mountaire Farms Inc. - NC Division", "Address": "17269 NC Highway 71 North ", "City": "Lumber Bridge", "State": "NC", "Zip": "28357", "Sales": 159802500.0 }, "geometry": { "type": "Point", "coordinates": [ -79.105846695186003, 34.868205285103997 ] } },
{ "type": "Feature", "properties": { "Parent Corporation": "Mountaire", "Establishment Name": "Mountaire Farms of Delaware, Inc.", "Address": "29005 John J Williams Highway ", "City": "Millsboro", "State": "DE", "Zip": "19966", "Sales": 2905500.0 }, "geometry": { "type": "Point", "coordinates": [ -75.259900025679002, 38.600126010644999 ] } },
{ "type": "Feature", "properties": { "Parent Corporation": "Norman W. Fries, Inc.", "Establishment Name": "Norman W. Fries, Inc.", "Address": "8816 Highway 301 North ", "City": "Claxton", "State": "GA", "Zip": "30417", "Sales": 228869740.0 }, "geometry": { "type": "Point", "coordinates": [ -81.890903004394005, 32.180782012725999 ] } },
{ "type": "Feature", "properties": { "Parent Corporation": "Other", "Establishment Name": "Ozark Mountain Poultry, Inc.", "Address": "1810 St. Louis Street ", "City": "Batesville", "State": "AR", "Zip": "72501", "Sales": 17989035.0 }, "geometry": { "type": "Point", "coordinates": [ -91.642943085935997, 35.761917035915999 ] } },
{ "type": "Feature", "properties": { "Parent Corporation": "Perdue", "Establishment Name": "PERDUE FOODS LLC", "Address": "20621 Savannah Road ", "City": "Georgetown", "State": "DE", "Zip": "19947", "Sales": 353172.0 }, "geometry": { "type": "Point", "coordinates": [ -75.381323963116003, 38.698328011062998 ] } },
{ "type": "Feature", "properties": { "Parent Corporation": "Other", "Establishment Name": "PRESTAGE FOODS of SC, LLC", "Address": "175 Dr. Humphries Road ", "City": "Camden", "State": "SC", "Zip": "29020", "Sales": 3791039.0 }, "geometry": { "type": "Point", "coordinates": [ -80.529892243573002, 34.224879224317 ] } },
{ "type": "Feature", "properties": { "Parent Corporation": "Peco Foods", "Establishment Name": "Peco Foods, Inc", "Address": "95 Commerce Dr. ", "City": "Bay Springs", "State": "MS", "Zip": "39422", "Sales": 350000.0 }, "geometry": { "type": "Point", "coordinates": [ -89.284616181562996, 32.015808493004002 ] } },
{ "type": "Feature", "properties": { "Parent Corporation": "Peco Foods", "Establishment Name": "Peco Foods, Inc.", "Address": "1039 West Fulton St ", "City": "Canton", "State": "MS", "Zip": "39046", "Sales": 350000.0 }, "geometry": { "type": "Point", "coordinates": [ -90.052748029144993, 32.609745018467997 ] } },
{ "type": "Feature", "properties": { "Parent Corporation": "Peco Foods", "Establishment Name": "Peco Foods, Inc.", "Address": "15292 Highway 21 South ", "City": "Sebastopol", "State": "MS", "Zip": "39359", "Sales": 350000.0 }, "geometry": { "type": "Point", "coordinates": [ -89.324207646611995, 32.574885018300002 ] } },
{ "type": "Feature", "properties": { "Parent Corporation": "Peco Foods", "Establishment Name": "Peco Foods, Inc.", "Address": "4114 Highway 67 South ", "City": "Pocahontas", "State": "AR", "Zip": "72455", "Sales": 666200.0 }, "geometry": { "type": "Point", "coordinates": [ -90.957919643707001, 36.213964180189002 ] } },
{ "type": "Feature", "properties": { "Parent Corporation": "Peco Foods", "Establishment Name": "Peco Foods, Inc.", "Address": "625 South Allen ", "City": "Batesville", "State": "AR", "Zip": "72501", "Sales": 235100.0 }, "geometry": { "type": "Point", "coordinates": [ -91.648781835869002, 35.764522047603997 ] } },
{ "type": "Feature", "properties": { "Parent Corporation": "Perdue", "Establishment Name": "Perdue Foods LLC", "Address": "2047 Highway 9 West ", "City": "Dillon", "State": "SC", "Zip": "29536", "Sales": 353172.0 }, "geometry": { "type": "Point", "coordinates": [ -79.389073654327007, 34.465406435797 ] } },
{ "type": "Feature", "properties": { "Parent Corporation": "Perdue", "Establishment Name": "Perdue Foods LLC", "Address": "2300 Industrial Dr ", "City": "Monterey", "State": "TN", "Zip": "38574", "Sales": 19071000.0 }, "geometry": { "type": "Point", "coordinates": [ -85.249788009211997, 36.120940016638997 ] } },
{ "type": "Feature", "properties": { "Parent Corporation": "Perdue", "Establishment Name": "Perdue Foods LLC", "Address": "250 Ga Hwy 247 Spur ", "City": "Perry", "State": "GA", "Zip": "31069", "Sales": 74328000.0 }, "geometry": { "type": "Point", "coordinates": [ -83.628483015870998, 32.443208001759999 ] } },
{ "type": "Feature", "properties": { "Parent Corporation": "Perdue", "Establishment Name": "Perdue Foods LLC", "Address": "489 Cromwell Road ", "City": "Cromwell", "State": "KY", "Zip": "42333", "Sales": 353172.0 }, "geometry": { "type": "Point", "coordinates": [ -86.785816872547002, 37.347453745995999 ] } },
{ "type": "Feature", "properties": { "Parent Corporation": "Perdue", "Establishment Name": "Perdue Foods LLC", "Address": "65 South 200 West ", "City": "Washington", "State": "IN", "Zip": "47501-3482", "Sales": 130000000.0 }, "geometry": { "type": "Point", "coordinates": [ -87.206029997768994, 38.655186984061999 ] } },
{ "type": "Feature", "properties": { "Parent Corporation": "Perdue", "Establishment Name": "Perdue Foods, LLC", "Address": "22520 Lankford Hiwy. ", "City": "Accomac", "State": "VA", "Zip": "23301", "Sales": 244500.0 }, "geometry": { "type": "Point", "coordinates": [ -75.656602008107996, 37.734143020460998 ] } },
{ "type": "Feature", "properties": { "Parent Corporation": "Perdue", "Establishment Name": "Perdue Foods, LLC", "Address": "255 N. Rehoboth Blvd. ", "City": "Milford", "State": "DE", "Zip": "19963", "Sales": 160233000.0 }, "geometry": { "type": "Point", "coordinates": [ -75.421387029542004, 38.922999016439 ] } },
{ "type": "Feature", "properties": { "Parent Corporation": "Perdue", "Establishment Name": "Perdue Foods, LLC", "Address": "521 Willow St. ", "City": "Salisbury", "State": "MD", "Zip": "21801", "Sales": 94459.0 }, "geometry": { "type": "Point", "coordinates": [ -75.605451859216004, 38.365951369107002 ] } },
{ "type": "Feature", "properties": { "Parent Corporation": "Perdue", "Establishment Name": "Perdue Foods, LLC.", "Address": "3539 Governor's Road ", "City": "Lewiston Woodville", "State": "NC", "Zip": "27849", "Sales": 260011.0 }, "geometry": { "type": "Point", "coordinates": [ -77.210764867503997, 36.144071516883002 ] } },
{ "type": "Feature", "properties": { "Parent Corporation": "Perdue", "Establishment Name": "Perdue Foods, LLC.", "Address": "416 S. Long Drive ", "City": "Rockingham", "State": "NC", "Zip": "28379", "Sales": 150000.0 }, "geometry": { "type": "Point", "coordinates": [ -79.753268752132001, 34.934856712322002 ] } },
{ "type": "Feature", "properties": { "Parent Corporation": "Pilgrim's Pride", "Establishment Name": "Pilgrim's Pride Corporation", "Address": "1107 Monticello Road ", "City": "Mount Pleasant", "State": "TX", "Zip": "75456", "Sales": 82680000.0 }, "geometry": { "type": "Point", "coordinates": [ -94.988671700962996, 33.144807408094003 ] } },
{ "type": "Feature", "properties": { "Parent Corporation": "Pilgrim's Pride", "Establishment Name": "Pilgrim's Pride Corporation", "Address": "113 McNeil Drive ", "City": "Douglas", "State": "GA", "Zip": "31533", "Sales": 82680000.0 }, "geometry": { "type": "Point", "coordinates": [ -82.847285029873007, 31.526878984425 ] } },
{ "type": "Feature", "properties": { "Parent Corporation": "Pilgrim's Pride", "Establishment Name": "Pilgrim's Pride Corporation", "Address": "125 Industrial Blvd. ", "City": "Ellijay", "State": "GA", "Zip": "30540", "Sales": 8295000.0 }, "geometry": { "type": "Point", "coordinates": [ -84.491115968903003, 34.685294010996003 ] } },
{ "type": "Feature", "properties": { "Parent Corporation": "Pilgrim's Pride", "Establishment Name": "Pilgrim's Pride Corporation", "Address": "129 Potomac Avenue ", "City": "Moorefield", "State": "WV", "Zip": "26836-1246", "Sales": 82680000.0 }, "geometry": { "type": "Point", "coordinates": [ -78.971224178566999, 39.059227022492998 ] } },
{ "type": "Feature", "properties": { "Parent Corporation": "Pilgrim's Pride", "Establishment Name": "Pilgrim's Pride Corporation", "Address": "1710 W. Frank Avenue ", "City": "Lufkin", "State": "TX", "Zip": "75904", "Sales": 82680000.0 }, "geometry": { "type": "Point", "coordinates": [ -94.754357009545998, 31.334595988195002 ] } },
{ "type": "Feature", "properties": { "Parent Corporation": "Pilgrim's Pride", "Establishment Name": "Pilgrim's Pride Corporation", "Address": "19740 US Hwy 90 ", "City": "Live Oak", "State": "FL", "Zip": "32060", "Sales": 165900.0 }, "geometry": { "type": "Point", "coordinates": [ -83.156821878111998, 30.373252685705001 ] } },
{ "type": "Feature", "properties": { "Parent Corporation": "Pilgrim's Pride", "Establishment Name": "Pilgrim's Pride Corporation", "Address": "2045 Highway 244 ", "City": "Russellville", "State": "AL", "Zip": "35654", "Sales": 82680000.0 }, "geometry": { "type": "Point", "coordinates": [ -87.671826801929001, 34.460903586553002 ] } },
{ "type": "Feature", "properties": { "Parent Corporation": "Pilgrim's Pride", "Establishment Name": "Pilgrim's Pride Corporation", "Address": "2050 Highway 15 South ", "City": "Sumter", "State": "SC", "Zip": "29150", "Sales": 82680000.0 }, "geometry": { "type": "Point", "coordinates": [ -80.366143034941999, 33.863272007490998 ] } },
{ "type": "Feature", "properties": { "Parent Corporation": "Pilgrim's Pride", "Establishment Name": "Pilgrim's Pride Corporation", "Address": "2653 State Route 1241 ", "City": "Hickory", "State": "KY", "Zip": "42051", "Sales": 620100.0 }, "geometry": { "type": "Point", "coordinates": [ -88.652456974914998, 36.829136990396997 ] } },
{ "type": "Feature", "properties": { "Parent Corporation": "Pilgrim's Pride", "Establishment Name": "Pilgrim's Pride Corporation", "Address": "330 CO-OP DRIVE ", "City": "TIMBERVILLE", "State": "VA", "Zip": "22853", "Sales": 82680000.0 }, "geometry": { "type": "Point", "coordinates": [ -78.784227035374002, 38.632766985628997 ] } },
{ "type": "Feature", "properties": { "Parent Corporation": "Pilgrim's Pride", "Establishment Name": "Pilgrim's Pride Corporation", "Address": "3500 Lake Guntersville Park Drive ", "City": "Guntersville", "State": "AL", "Zip": "35976", "Sales": 1860300.0 }, "geometry": { "type": "Point", "coordinates": [ -86.284397214802993, 34.345768624579001 ] } },
{ "type": "Feature", "properties": { "Parent Corporation": "Pilgrim's Pride", "Establishment Name": "Pilgrim's Pride Corporation", "Address": "401 South 3rd Street ", "City": "De Queen", "State": "AR", "Zip": "71832", "Sales": 82680000.0 }, "geometry": { "type": "Point", "coordinates": [ -94.341206128867995, 34.031977296821999 ] } },
{ "type": "Feature", "properties": { "Parent Corporation": "Pilgrim's Pride", "Establishment Name": "Pilgrim's Pride Corporation", "Address": "4693 County Road 636 ", "City": "Enterprise", "State": "AL", "Zip": "36330", "Sales": 82680000.0 }, "geometry": { "type": "Point", "coordinates": [ -85.958440958503004, 31.254052017467998 ] } },
{ "type": "Feature", "properties": { "Parent Corporation": "Pilgrim's Pride", "Establishment Name": "Pilgrim's Pride Corporation", "Address": "484 Zimmerman Road ", "City": "Sanford", "State": "NC", "Zip": "27330", "Sales": 82680000.0 }, "geometry": { "type": "Point", "coordinates": [ -79.234551824272998, 35.560832789895002 ] } },
{ "type": "Feature", "properties": { "Parent Corporation": "Pilgrim's Pride", "Establishment Name": "Pilgrim's Pride Corporation", "Address": "5901 W. Marshville Blvd ", "City": "Marshville", "State": "NC", "Zip": "28103", "Sales": 110436900.0 }, "geometry": { "type": "Point", "coordinates": [ -80.391637096363993, 34.986006019165004 ] } },
{ "type": "Feature", "properties": { "Parent Corporation": "Pilgrim's Pride", "Establishment Name": "Pilgrim's Pride Corporation", "Address": "616 Kingsbridge Road ", "City": "Carrollton", "State": "GA", "Zip": "30117", "Sales": 8295000.0 }, "geometry": { "type": "Point", "coordinates": [ -85.090105964379006, 33.596048007531003 ] } },
{ "type": "Feature", "properties": { "Parent Corporation": "Pilgrim's Pride", "Establishment Name": "Pilgrim's Pride Corporation", "Address": "654 Univeter Road ", "City": "Canton", "State": "GA", "Zip": "30115", "Sales": 4960800.0 }, "geometry": { "type": "Point", "coordinates": [ -84.502537988360004, 34.193852005617003 ] } },
{ "type": "Feature", "properties": { "Parent Corporation": "Pilgrim's Pride", "Establishment Name": "Pilgrim's Pride Corporation", "Address": "7088 Hwy 1 Bypass ", "City": "Natchitoches", "State": "LA", "Zip": "71457", "Sales": 78883500.0 }, "geometry": { "type": "Point", "coordinates": [ -93.107012963437995, 31.725000982045 ] } },
{ "type": "Feature", "properties": { "Parent Corporation": "Pilgrim's Pride", "Establishment Name": "Pilgrim's Pride Corporation", "Address": "851 Sauk River Road ", "City": "Cold Spring", "State": "MN", "Zip": "56320", "Sales": 413400.0 }, "geometry": { "type": "Point", "coordinates": [ -94.406047023091006, 45.462137006904001 ] } },
{ "type": "Feature", "properties": { "Parent Corporation": "Pilgrim's Pride", "Establishment Name": "Pilgrim's Pride Corporation", "Address": "928 Martin Luther King Jr. Blvd. ", "City": "Nacogdoches", "State": "TX", "Zip": "75961", "Sales": 82680000.0 }, "geometry": { "type": "Point", "coordinates": [ -94.649284991738, 31.588522014948001 ] } },
{ "type": "Feature", "properties": { "Parent Corporation": "Pilgrim's Pride", "Establishment Name": "Pilgrim's Pride Corporation", "Address": "949 Industrial Blvd. ", "City": "Gainesville", "State": "GA", "Zip": "30503", "Sales": 82680000.0 }, "geometry": { "type": "Point", "coordinates": [ -83.827311985113994, 34.283343993259003 ] } },
{ "type": "Feature", "properties": { "Parent Corporation": "Other", "Establishment Name": "Pitman Farms", "Address": "1078 North Avenue ", "City": "Sanger", "State": "CA", "Zip": "93657", "Sales": 3791039.0 }, "geometry": { "type": "Point", "coordinates": [ -119.551853025122995, 36.692664016361 ] } },
{ "type": "Feature", "properties": { "Parent Corporation": "Other", "Establishment Name": "Plainville Brands, LLC", "Address": "304 South Water Street ", "City": "New Oxford", "State": "PA", "Zip": "17350", "Sales": 2137000.0 }, "geometry": { "type": "Point", "coordinates": [ -77.056984005987999, 39.858857993901999 ] } },
{ "type": "Feature", "properties": { "Parent Corporation": "Sanderson Farms, Inc.", "Establishment Name": "Sanderson Farms Processing Inc. Tyler Processing Division", "Address": "13523 FM 2015 ", "City": "Tyler", "State": "TX", "Zip": "75708", "Sales": 192706200.0 }, "geometry": { "type": "Point", "coordinates": [ -95.232591021448997, 32.459719009912 ] } },
{ "type": "Feature", "properties": { "Parent Corporation": "Sanderson Farms, Inc.", "Establishment Name": "Sanderson Farms, Inc.", "Address": "13111 Hwy 190 West ", "City": "Hammond", "State": "LA", "Zip": "70401", "Sales": 220158000.0 }, "geometry": { "type": "Point", "coordinates": [ -90.508328019877993, 30.505052986790002 ] } },
{ "type": "Feature", "properties": { "Parent Corporation": "Sanderson Farms, Inc.", "Establishment Name": "Sanderson Farms, Inc.", "Address": "2000 Shiloh Avenue ", "City": "Bryan", "State": "TX", "Zip": "77803", "Sales": 192706200.0 }, "geometry": { "type": "Point", "coordinates": [ -96.416436022341003, 30.648668012883999 ] } },
{ "type": "Feature", "properties": { "Parent Corporation": "Sanderson Farms, Inc.", "Establishment Name": "Sanderson Farms, Inc.", "Address": "2076 NC HIGHWAY 20 ", "City": "St Pauls", "State": "NC", "Zip": "28384", "Sales": 6523200.0 }, "geometry": { "type": "Point", "coordinates": [ -79.013454149948998, 34.829152657104999 ] } },
{ "type": "Feature", "properties": { "Parent Corporation": "Sanderson Farms, Inc.", "Establishment Name": "Sanderson Farms, Inc.", "Address": "2081 Sanderson Way ", "City": "Kinston", "State": "NC", "Zip": "28504", "Sales": 192706200.0 }, "geometry": { "type": "Point", "coordinates": [ -77.667925673382001, 35.258225088594003 ] } },
{ "type": "Feature", "properties": { "Parent Corporation": "Sanderson Farms, Inc.", "Establishment Name": "Sanderson Farms, Inc.", "Address": "2535 Sanderson Drive ", "City": "Laurel", "State": "MS", "Zip": "39440", "Sales": 165254400.0 }, "geometry": { "type": "Point", "coordinates": [ -89.160188999566998, 31.666995990865999 ] } },
{ "type": "Feature", "properties": { "Parent Corporation": "Sanderson Farms, Inc.", "Establishment Name": "Sanderson Farms, Inc.", "Address": "301 Aviation Parkway ", "City": "Waco", "State": "TX", "Zip": "76705", "Sales": 326160000.0 }, "geometry": { "type": "Point", "coordinates": [ -97.051395027457005, 31.624356997955999 ] } },
{ "type": "Feature", "properties": { "Parent Corporation": "Sanderson Farms, Inc.", "Establishment Name": "Sanderson Farms, Inc.", "Address": "320 Sanderson Farms Pkwy ", "City": "Palestine", "State": "TX", "Zip": "75803", "Sales": 1570571.0 }, "geometry": { "type": "Point", "coordinates": [ -95.699646005266999, 31.728594010569001 ] } },
{ "type": "Feature", "properties": { "Parent Corporation": "Sanderson Farms, Inc.", "Establishment Name": "Sanderson Farms, Inc.", "Address": "4039 River Ridge Road ", "City": "Summit", "State": "MS", "Zip": "39666", "Sales": 419115600.0 }, "geometry": { "type": "Point", "coordinates": [ -90.373365634829995, 31.27224222321 ] } },
{ "type": "Feature", "properties": { "Parent Corporation": "Sanderson Farms, Inc.", "Establishment Name": "Sanderson Farms, Inc.", "Address": "700 Hwy 133 South ", "City": "Moultrie", "State": "GA", "Zip": "31788", "Sales": 250327800.0 }, "geometry": { "type": "Point", "coordinates": [ -83.745665039748999, 31.158846002612002 ] } },
{ "type": "Feature", "properties": { "Parent Corporation": "Sanderson Farms, Inc.", "Establishment Name": "Sanderson Farms, Inc. (Processing Div)", "Address": "1111 North Fir Ave Old Highway 49 North", "City": "Collins", "State": "MS", "Zip": "39428", "Sales": 12774600.0 }, "geometry": { "type": "Point", "coordinates": [ -89.569014825989996, 31.651522479853 ] } },
{ "type": "Feature", "properties": { "Parent Corporation": "Sanderson Farms, Inc.", "Establishment Name": "Sanderson Farms, Inc. (Processing Div)", "Address": "28163 Hwy 28 East ", "City": "Hazlehurst", "State": "MS", "Zip": "39083", "Sales": 192706200.0 }, "geometry": { "type": "Point", "coordinates": [ -90.380743970340006, 31.879060991052 ] } },
{ "type": "Feature", "properties": { "Parent Corporation": "Simmons Prepared Foods, Inc.", "Establishment Name": "Simmons Prepared Foods, Inc.", "Address": "10700 South State Hwy 43 ", "City": "South West City", "State": "MO", "Zip": "64863", "Sales": 10700637.0 }, "geometry": { "type": "Point", "coordinates": [ -94.598997009266, 36.543785993263 ] } },
{ "type": "Feature", "properties": { "Parent Corporation": "Simmons Prepared Foods, Inc.", "Establishment Name": "Simmons Prepared Foods, Inc.", "Address": "9802 S. Hwy 59 ", "City": "Gentry", "State": "AR", "Zip": "72734", "Sales": 207093.0 }, "geometry": { "type": "Point", "coordinates": [ -94.449839731988007, 36.29929119074 ] } },
{ "type": "Feature", "properties": { "Parent Corporation": "Other", "Establishment Name": "Soulshine Farms, LLC", "Address": "2118 Centennial Drive ", "City": "Gainesville", "State": "GA", "Zip": "30504", "Sales": 3791039.0 }, "geometry": { "type": "Point", "coordinates": [ -83.859768977323, 34.266911020626999 ] } },
{ "type": "Feature", "properties": { "Parent Corporation": "Hillshire", "Establishment Name": "The Hillshire Brands Company", "Address": "315 Vilas Road ", "City": "Storm Lake", "State": "IA", "Zip": "50588-2281", "Sales": 53165.0 }, "geometry": { "type": "Point", "coordinates": [ -95.183596031359997, 42.639176013246001 ] } },
{ "type": "Feature", "properties": { "Parent Corporation": "Other", "Establishment Name": "Tip Top Poultry, Inc.", "Address": "327 Wallace Rd. P.O. Box 6338", "City": "Marietta", "State": "GA", "Zip": "30065", "Sales": 17563346.0 }, "geometry": { "type": "Point", "coordinates": [ -84.514812028275003, 33.959145012293 ] } },
{ "type": "Feature", "properties": { "Parent Corporation": "Tyson", "Establishment Name": "Tyson Foods Inc", "Address": "1225 Jack Lee Drive ", "City": "Forest", "State": "MS", "Zip": "39074", "Sales": 9271800.0 }, "geometry": { "type": "Point", "coordinates": [ -89.493059017459004, 32.359912000763998 ] } },
{ "type": "Feature", "properties": { "Parent Corporation": "Tyson", "Establishment Name": "Tyson Foods Inc", "Address": "2800 E. Tyson Dr. ", "City": "Union City", "State": "TN", "Zip": "38261", "Sales": 686800.0 }, "geometry": { "type": "Point", "coordinates": [ -89.009941960223998, 36.419725989187 ] } },
{ "type": "Feature", "properties": { "Parent Corporation": "Tyson", "Establishment Name": "Tyson Foods Inc.", "Address": "550 Tyson Boulevard ", "City": "Humboldt", "State": "TN", "Zip": "38343", "Sales": 136890000.0 }, "geometry": { "type": "Point", "coordinates": [ -88.926189909437994, 35.850989530866002 ] } },
{ "type": "Feature", "properties": { "Parent Corporation": "Tyson", "Establishment Name": "Tyson Foods Inc.", "Address": "901 W. JACKSON ST. ", "City": "Shelbyville", "State": "TN", "Zip": "37160", "Sales": 370872000.0 }, "geometry": { "type": "Point", "coordinates": [ -86.477525088090005, 35.479494170731002 ] } },
{ "type": "Feature", "properties": { "Parent Corporation": "Tyson", "Establishment Name": "Tyson Foods, Inc", "Address": "1291 N Highway 7 ", "City": "Dardanelle", "State": "AR", "Zip": "72834", "Sales": 836522400.0 }, "geometry": { "type": "Point", "coordinates": [ -93.162411979010002, 35.216701098352999 ] } },
{ "type": "Feature", "properties": { "Parent Corporation": "Tyson", "Establishment Name": "Tyson Foods, Inc", "Address": "3865 Highway 35 North ", "City": "Carthage", "State": "MS", "Zip": "39051", "Sales": 82460000.0 }, "geometry": { "type": "Point", "coordinates": [ -89.535991963713997, 32.824067013722001 ] } },
{ "type": "Feature", "properties": { "Parent Corporation": "Tyson", "Establishment Name": "Tyson Foods, Inc", "Address": "5322 South Park Drive ", "City": "Broken Bow", "State": "OK", "Zip": "74728", "Sales": 247248000.0 }, "geometry": { "type": "Point", "coordinates": [ -94.754715574089005, 33.959356511480998 ] } },
{ "type": "Feature", "properties": { "Parent Corporation": "Tyson", "Establishment Name": "Tyson Foods, Inc", "Address": "601 Tyson Drive Building 1", "City": "Green Forest", "State": "AR", "Zip": "72638", "Sales": 2060400.0 }, "geometry": { "type": "Point", "coordinates": [ -93.428876285174994, 36.330287939091001 ] } },
{ "type": "Feature", "properties": { "Parent Corporation": "Tyson", "Establishment Name": "Tyson Foods, Inc.", "Address": "100 East Cassady St. ", "City": "Nashville", "State": "AR", "Zip": "71852", "Sales": 103604.0 }, "geometry": { "type": "Point", "coordinates": [ -93.846966286118999, 33.927805704961997 ] } },
{ "type": "Feature", "properties": { "Parent Corporation": "Tyson", "Establishment Name": "Tyson Foods, Inc.", "Address": "1019 Shelbyville Street ", "City": "Center", "State": "TX", "Zip": "75935", "Sales": 339966000.0 }, "geometry": { "type": "Point", "coordinates": [ -94.166183021928006, 31.793304985292998 ] } },
{ "type": "Feature", "properties": { "Parent Corporation": "Tyson", "Establishment Name": "Tyson Foods, Inc.", "Address": "11224 Lankford Hwy. ", "City": "Temperanceville", "State": "VA", "Zip": "23442", "Sales": 339966000.0 }, "geometry": { "type": "Point", "coordinates": [ -75.555988995152006, 37.884826002589001 ] } },
{ "type": "Feature", "properties": { "Parent Corporation": "Tyson", "Establishment Name": "Tyson Foods, Inc.", "Address": "1151 East Pine Street ", "City": "Vienna", "State": "GA", "Zip": "31092", "Sales": 117442800.0 }, "geometry": { "type": "Point", "coordinates": [ -83.768228033450001, 32.096855985977001 ] } },
{ "type": "Feature", "properties": { "Parent Corporation": "Tyson", "Establishment Name": "Tyson Foods, Inc.", "Address": "1200 West Kingsbury Street ", "City": "Seguin", "State": "TX", "Zip": "78155", "Sales": 247248000.0 }, "geometry": { "type": "Point", "coordinates": [ -97.982472003428995, 29.580262983021999 ] } },
{ "type": "Feature", "properties": { "Parent Corporation": "Tyson", "Establishment Name": "Tyson Foods, Inc.", "Address": "14660  U S HWY 41 South ", "City": "Robards", "State": "KY", "Zip": "42452", "Sales": 243127200.0 }, "geometry": { "type": "Point", "coordinates": [ -87.519314022510997, 37.654885001319997 ] } },
{ "type": "Feature", "properties": { "Parent Corporation": "Tyson", "Establishment Name": "Tyson Foods, Inc.", "Address": "1484 NE Loop ", "City": "Carthage", "State": "TX", "Zip": "75633", "Sales": 225613800.0 }, "geometry": { "type": "Point", "coordinates": [ -94.325532975757994, 32.173155989579001 ] } },
{ "type": "Feature", "properties": { "Parent Corporation": "Tyson", "Establishment Name": "Tyson Foods, Inc.", "Address": "19571 Whitfield Road ", "City": "Sedalia", "State": "MO", "Zip": "65301", "Sales": 494496000.0 }, "geometry": { "type": "Point", "coordinates": [ -93.319940964374993, 38.748232018551001 ] } },
{ "type": "Feature", "properties": { "Parent Corporation": "Tyson", "Establishment Name": "Tyson Foods, Inc.", "Address": "2023 Hasty Street ", "City": "Monroe", "State": "NC", "Zip": "28110", "Sales": 136890000.0 }, "geometry": { "type": "Point", "coordinates": [ -80.492428476219999, 34.981945280443 ] } },
{ "type": "Feature", "properties": { "Parent Corporation": "Tyson", "Establishment Name": "Tyson Foods, Inc.", "Address": "275 County Road 278 ", "City": "Hope", "State": "AR", "Zip": "71801", "Sales": 1373600.0 }, "geometry": { "type": "Point", "coordinates": [ -93.612438825810003, 33.741255328012002 ] } },
{ "type": "Feature", "properties": { "Parent Corporation": "Tyson", "Establishment Name": "Tyson Foods, Inc.", "Address": "301 East Cherry Street ", "City": "Clarksville", "State": "AR", "Zip": "72830-0469", "Sales": 370872000.0 }, "geometry": { "type": "Point", "coordinates": [ -93.456820712172004, 35.472130964263997 ] } },
{ "type": "Feature", "properties": { "Parent Corporation": "Tyson", "Establishment Name": "Tyson Foods, Inc.", "Address": "340 W. Maple  ", "City": "Cumming", "State": "GA", "Zip": "30040", "Sales": 4886227.0 }, "geometry": { "type": "Point", "coordinates": [ -84.142754517561997, 34.205642744994996 ] } },
{ "type": "Feature", "properties": { "Parent Corporation": "Tyson", "Establishment Name": "Tyson Foods, Inc.", "Address": "403 South Custer Avenue ", "City": "New Holland", "State": "PA", "Zip": "17557", "Sales": 370872000.0 }, "geometry": { "type": "Point", "coordinates": [ -76.085484966676006, 40.094219991049997 ] } },
{ "type": "Feature", "properties": { "Parent Corporation": "Tyson", "Establishment Name": "Tyson Foods, Inc.", "Address": "442 Plant Street ", "City": "Waldron", "State": "AR", "Zip": "72958", "Sales": 517600.0 }, "geometry": { "type": "Point", "coordinates": [ -94.101943361620002, 34.904259999704003 ] } },
{ "type": "Feature", "properties": { "Parent Corporation": "Tyson", "Establishment Name": "Tyson Foods, Inc.", "Address": "5505 Jefferson Parkway ", "City": "Pine Bluff", "State": "AR", "Zip": "71602", "Sales": 343400.0 }, "geometry": { "type": "Point", "coordinates": [ -92.075502933969005, 34.263615130570003 ] } },
{ "type": "Feature", "properties": { "Parent Corporation": "Tyson", "Establishment Name": "Tyson Foods, Inc.", "Address": "600 N. Berry Street ", "City": "Springdale", "State": "AR", "Zip": "72764", "Sales": 842400.0 }, "geometry": { "type": "Point", "coordinates": [ -94.125623998291005, 36.190396741120999 ] } },
{ "type": "Feature", "properties": { "Parent Corporation": "Tyson", "Establishment Name": "Tyson Foods, Inc.", "Address": "6600 HWY. 431 S., P.O. Box 1097", "City": "Albertville", "State": "AL", "Zip": "35950", "Sales": 5837800.0 }, "geometry": { "type": "Point", "coordinates": [ -86.196244017311997, 34.271352004386003 ] } },
{ "type": "Feature", "properties": { "Parent Corporation": "Tyson", "Establishment Name": "Tyson Foods, Inc.", "Address": "67240 Main Street ", "City": "Blountsville", "State": "AL", "Zip": "35031", "Sales": 231795000.0 }, "geometry": { "type": "Point", "coordinates": [ -86.584463722793998, 34.057554022086002 ] } },
{ "type": "Feature", "properties": { "Parent Corporation": "Tyson", "Establishment Name": "Tyson Foods, Inc.", "Address": "704 Factory Street ", "City": "Wilkesboro", "State": "NC", "Zip": "28697", "Sales": 480000.0 }, "geometry": { "type": "Point", "coordinates": [ -81.162773781065994, 36.144057221777999 ] } },
{ "type": "Feature", "properties": { "Parent Corporation": "Tyson", "Establishment Name": "Tyson Foods, Inc.", "Address": "800 County Road ", "City": "Monett", "State": "MO", "Zip": "65708", "Sales": 370872000.0 }, "geometry": { "type": "Point", "coordinates": [ -93.913524967577999, 36.918477014135 ] } },
{ "type": "Feature", "properties": { "Parent Corporation": "Wayne Farms", "Establishment Name": "Wayne Farms LLC", "Address": "1020 County Road 114 ", "City": "Jack", "State": "AL", "Zip": "36346", "Sales": 35674109.0 }, "geometry": { "type": "Point", "coordinates": [ -85.899573008483003, 31.500603981084002 ] } },
{ "type": "Feature", "properties": { "Parent Corporation": "Wayne Farms", "Establishment Name": "Wayne Farms LLC", "Address": "2301 East 8th Street ", "City": "Danville", "State": "AR", "Zip": "72833", "Sales": 35674109.0 }, "geometry": { "type": "Point", "coordinates": [ -93.368978953625998, 35.055289280160999 ] } },
{ "type": "Feature", "properties": { "Parent Corporation": "Wayne Farms", "Establishment Name": "Wayne Farms LLC", "Address": "254 Ipsco Street ", "City": "Decatur", "State": "AL", "Zip": "35601", "Sales": 35674109.0 }, "geometry": { "type": "Point", "coordinates": [ -87.042901984902002, 34.607063990368999 ] } },
{ "type": "Feature", "properties": { "Parent Corporation": "Wayne Farms", "Establishment Name": "Wayne Farms LLC", "Address": "444 Baskin Street  South ", "City": "Union Springs", "State": "AL", "Zip": "36089", "Sales": 35674109.0 }, "geometry": { "type": "Point", "coordinates": [ -85.724309005646006, 32.136856020491997 ] } },
{ "type": "Feature", "properties": { "Parent Corporation": "Wayne Farms", "Establishment Name": "Wayne Farms LLC", "Address": "700 McDonald Avenue ", "City": "Albertville", "State": "AL", "Zip": "35950", "Sales": 35674109.0 }, "geometry": { "type": "Point", "coordinates": [ -86.201072999369998, 34.257754000955003 ] } },
{ "type": "Feature", "properties": { "Parent Corporation": "Wayne Farms", "Establishment Name": "Wayne Farms LLC", "Address": "808 Ross Clark Circle NE ", "City": "Dothan", "State": "AL", "Zip": "36303", "Sales": 35674109.0 }, "geometry": { "type": "Point", "coordinates": [ -85.362524020188999, 31.225337000203002 ] } },
{ "type": "Feature", "properties": { "Parent Corporation": "Wayne Farms", "Establishment Name": "Wayne Farms LLC", "Address": "977 Wayne Poultry Road ", "City": "Pendergrass", "State": "GA", "Zip": "30567", "Sales": 18193795.0 }, "geometry": { "type": "Point", "coordinates": [ -83.672544250111997, 34.178784445010997 ] } },
{ "type": "Feature", "properties": { "Parent Corporation": "Wayne Farms", "Establishment Name": "Wayne Farms, LLC", "Address": "802 E. Atkins Street ", "City": "Dobson", "State": "NC", "Zip": "27017", "Sales": 35674109.0 }, "geometry": { "type": "Point", "coordinates": [ -80.711505776603005, 36.391021449301 ] } },
{ "type": "Feature", "properties": { "Parent Corporation": "Other", "Establishment Name": "West Liberty Foods, LLC", "Address": "207 W. Second Street ", "City": "West Liberty", "State": "IA", "Zip": "52776", "Sales": 347370.0 }, "geometry": { "type": "Point", "coordinates": [ -91.266211993650998, 41.569267982416001 ] } }
]
}
